COSMOS 1275 DEB
1 17617U 81053KL  19103.74424862  .00000238  00000-0  25281-3 0  9994
2 17617  82.8593 252.5003 0187290 129.0372 293.9030 13.62810447685020
COSMOS 1275 DEB
1 17618U 81053KM  19103.84711521 +.00000381 +00000-0 +24119-3 0  9995
2 17618 082.8496 048.4329 0056836 301.4184 118.8441 14.00947112726002
COSMOS 1275 DEB
1 17619U 81053KN  19103.65334509  .00000962  00000-0  45208-3 0  9999
2 17619  82.9481 326.6132 0022701 145.4531 268.8207 14.18987181742314
COSMOS 1275 DEB
1 17620U 81053KP  19104.70328880  .00000686  00000-0  31532-3 0  9991
2 17620  83.1814 349.3602 0028155 342.2508  17.7687 14.19662770740432
COSMOS 1275 DEB
1 17621U 81053KQ  19104.35131138  .00000888  00000-0  42037-3 0  9997
2 17621  82.7951 213.1025 0041764 279.8771  79.7695 14.18252961734509
COSMOS 1275 DEB
1 17623U 81053KS  19103.48932865 +.00000451 +00000-0 +34371-3 0  9996
2 17623 082.8023 109.7656 0059960 111.8532 041.0006 13.90729278714571
COSMOS 1275 DEB
1 17624U 81053KT  19103.97984517  .00000774  00000-0  31503-3 0  9994
2 17624  82.8503  81.8482 0013675 301.3446 113.7402 14.26389070748964
COSMOS 1275 DEB
1 17625U 81053KU  19104.80423493  .00000453  00000-0  32574-3 0  9992
2 17625  82.7938  29.7854 0043621 257.6959 156.3450 13.94495408402933
COSMOS 1275 DEB
1 17626U 81053KV  19103.45835618 +.00000317 +00000-0 +37524-3 0  9998
2 17626 082.8658 273.8317 0144964 204.5591 184.4795 13.60618094682772
COSMOS 1275 DEB
1 17627U 81053KW  19104.33296928  .00000278  00000-0  19584-3 0  9994
2 17627  82.9311 212.3002 0050514  84.2285 276.4637 13.94014029720101
COSMOS 1275 DEB
1 17629U 81053KY  19104.49962017  .00000459  00000-0  52009-3 0  9992
2 17629  82.9867 105.9691 0164156 185.1665 304.9576 13.62724340681486
COSMOS 1275 DEB
1 17631U 81053LA  19103.65758170  .00000885  00000-0  10456-2 0  9997
2 17631  82.9318 339.1404 0131503  72.9709 347.6096 13.63130929684541
COSMOS 1275 DEB
1 17632U 81053LB  19102.48579229 +.00000254 +00000-0 +30405-3 0  9991
2 17632 083.0852 263.1474 0150172 191.7111 225.5692 13.58634263679230
COSMOS 1275 DEB
1 17633U 81053LC  19103.83299941  .00001196  00000-0  11359-2 0  9994
2 17633  83.0709 251.8469 0190751 202.6295 281.8602 13.72391835680578
COSMOS 1275 DEB
1 17635U 81053LE  19104.04291428  .00000762  00000-0  43246-3 0  9991
2 17635  82.8293 323.9127 0054489 128.3297 232.2794 14.08020647728407
COSMOS 1275 DEB
1 17637U 81053LG  19103.67876339  .00000525  00000-0  63509-3 0  9992
2 17637  83.0711 232.6054 0140760 223.2831 201.9549 13.60614583679657
COSMOS 1275 DEB
1 17638U 81053LH  19104.16612480  .00000375  00000-0  40778-3 0  9999
2 17638  82.9963  39.2947 0124520 282.3403 144.6111 13.67429687686487
COSMOS 1275 DEB
1 17639U 81053LJ  19103.27156633  .00000279  00000-0  33788-3 0  9990
2 17639  83.0033 193.5773 0162426 107.3588 308.6899 13.57383931675153
COSMOS 1275 DEB
1 17640U 81053LK  19104.56567908  .00000679  00000-0  32184-3 0  9999
2 17640  82.9119 294.4101 0027330 169.8731 190.3006 14.18059355438433
COSMOS 1275 DEB
1 17641U 81053LL  19103.38449043  .00000712  00000-0  40453-3 0  9994
2 17641  82.7595 231.7155 0060479 234.7730 179.3978 14.07813904741747
COSMOS 1275 DEB
1 17642U 81053LM  19103.41636703  .00000642  00000-0  26648-3 0  9992
2 17642  82.8673 103.0601 0038543 190.8414 169.1943 14.24732663762249
THOR ABLESTAR DEB
1 17648U 61015LH  19104.74928310  .00000394  00000-0  26097-3 0  9991
2 17648  65.7250 253.8980 0074309  22.1132 338.3125 14.11134181387370
THORAD AGENA D DEB
1 17658U 69082KU  19103.30711106  .00000063  00000-0  82325-4 0  9998
2 17658  70.3584 222.1480 0060666 273.2174 115.4309 13.95533725205660
OPS 4682 DEB
1 17666U 65027V   19103.85691067 +.00000105 +00000-0 +33930-3 0  9999
2 17666 090.2958 308.1092 0039614 134.3618 289.1779 12.96182573610119
ARIANE 1 DEB
1 17702U 86019LU  19103.37030587 +.00000157 +00000-0 +53468-4 0  9991
2 17702 098.3551 159.8198 0005515 217.2864 142.7947 14.48498639698886
SL-12 R/B(2)
1 17705U 87028D   19103.71629330  .00000026  00000-0  00000+0 0  9997
2 17705  14.9636 344.0282 0028943  38.7518 143.5108  0.99861471118289
AGILA 1 (PALAPA B2P)
1 17706U 87029A   19103.56091178 -.00000257 +00000-0 +00000-0 0  9993
2 17706 015.1359 009.9142 0008333 342.9692 204.4956 00.99922359016335
THOR ABLESTAR DEB
1 17713U 61015LR  19103.36394972 +.00000053 +00000-0 +95440-4 0  9993
2 17713 066.2108 084.7955 0077302 258.8094 173.5980 13.96479784734035
THORAD AGENA D DEB
1 17716U 70025PE  19103.60495872 +.00001531 +00000-0 +55846-3 0  9992
2 17716 099.5154 343.8103 0029991 108.1646 315.3832 14.34501261739916
THORAD AGENA D DEB
1 17717U 70025PF  19103.88224061 +.00000652 +00000-0 +13212-3 0  9997
2 17717 099.9861 250.1163 0089398 338.0815 021.6566 14.63569399777934
THORAD AGENA D DEB
1 17719U 70025PH  19104.00853678  .00001888  00000-0  72042-3 0  9994
2 17719  99.0881 286.4954 0099257 111.3375  19.0278 14.29321455743549
THORAD AGENA D DEB
1 17720U 70025PJ  19104.07011463  .00000575  00000-0  38768-3 0  9990
2 17720  99.6357 138.7765 0037725 221.4111 193.5020 14.04710117736520
OPS 4682 DEB
1 17722U 65027W   19102.50721086  .00000552  00000-0  18775-2 0  9993
2 17722  90.2963 289.5243 0010759  37.9513 350.8058 12.97407120604678
COSMOS 374 DEB *
1 17725U 70089DC  19104.00725205  .00000267  00000-0  11014-3 0  9997
2 17725  62.7353 332.5592 0842196 110.2726   7.7103 13.29086154625615
THORAD DELTA 1 DEB
1 17728U 74089EX  19103.75768528  .00000073  00000-0  89408-3 0  9997
2 17728 101.5642  27.5458 0108511 141.5279 277.3767 12.34724937539055
COSMOS 970 DEB *
1 17732U 77121BP  19103.49097327  .00000276  00000-0  25750-3 0  9990
2 17732  65.8093 141.3234 0168163  95.7305 266.2966 13.90617851724770
SL-8 DEB
1 17754U 85079C   19103.51913008  .00000223  00000-0  71653-4 0  9997
2 17754  74.0386 287.0807 0016717 290.0003 101.0964 14.44989791761014
SL-3 DEB
1 17755U 82116D   19104.43533464 -.00000014  00000-0 -13095-4 0  9999
2 17755  81.2541  72.1305 0068038 265.8121 219.3782 14.14259464874445
DELTA 1 DEB
1 17764U 78026GW  19104.14420230  .00000037  00000-0  45298-4 0  9991
2 17764  98.9741  82.3821 0047923  27.9653  32.2336 14.10903544750390
DELTA 1 DEB
1 17765U 78026GX  19104.46141383 -.00000152  00000-0 -75765-4 0  9998
2 17765  99.0522 200.6227 0041322 304.6838 117.8041 13.97647815734061
DELTA 1 DEB
1 17768U 78026HA  19103.45181579 +.00000194 +00000-0 +74509-4 0  9999
2 17768 098.4342 084.2624 0082044 024.4284 130.5262 14.38924076944908
COSMOS 1275 DEB
1 17792U 81053LN  19103.51969762  .00000601  00000-0  37220-3 0  9996
2 17792  82.9527 136.3863 0013062 336.4392 182.2798 14.03657386728314
COSMOS 1275 DEB
1 17793U 81053LP  19103.44137054 +.00000331 +00000-0 +55360-3 0  9995
2 17793 083.1472 081.9372 0278643 127.8293 000.8299 13.28939630648668
COSMOS 1375 DEB
1 17794U 82055AL  19103.43648114  .00000666  00000-0  57596-3 0  9996
2 17794  65.8202 135.3271 0051182 211.1415 148.6621 13.92477596686637
COSMOS 1375 DEB
1 17795U 82055AM  19103.78600234 -.00000060 +00000-0 +23141-4 0  9995
2 17795 065.8328 090.8663 0072218 349.7453 077.3653 13.59732356661806
COSMOS 1375 DEB
1 17796U 82055AN  19103.97465583 +.00000245 +00000-0 +20824-3 0  9991
2 17796 065.8242 034.6423 0044517 210.9631 228.1384 14.03874610363042
COSMOS 1375 DEB
1 17797U 82055AP  19103.46181896  .00000195  00000-0  23687-3 0  9992
2 17797  65.8278  83.0232 0001202 295.5309 148.4167 13.87247388688043
COSMOS 1375 DEB
1 17798U 82055AQ  19103.71988604 -.00000054 +00000-0 +30666-4 0  9994
2 17798 065.8338 130.9911 0075921 353.3323 121.7332 13.59100835660845
COSMOS 1375 DEB
1 17799U 82055AR  19103.57910980 +.00000077 +00000-0 +12472-3 0  9999
2 17799 065.8382 162.3077 0035793 287.2098 186.9642 13.92599531694479
COSMOS 1375 DEB
1 17800U 82055AS  19103.97481660 +.00000014 +00000-0 +10550-3 0  9990
2 17800 065.8350 315.1036 0042529 277.7133 151.4278 13.70292050673492
COSMOS 1375 DEB
1 17801U 82055AT  19104.21901816  .00000699  00000-0  37672-3 0  9992
2 17801  65.8314 117.6161 0030190 201.5711 158.4104 14.18872891712483
COSMOS 1375 DEB
1 17802U 82055AU  19104.14669484  .00000070  00000-0  15531-3 0  9990
2 17802  65.8319 135.5265 0036112 174.3536 292.1225 13.75778941677657
COSMOS 1375 DEB
1 17803U 82055AV  19103.88062421 +.00000048 +00000-0 +12530-3 0  9990
2 17803 065.8314 279.8894 0033004 083.4054 027.9545 13.79515405682175
COSMOS 1375 DEB
1 17804U 82055AW  19104.79928189  .00000385  00000-0  34326-3 0  9995
2 17804  65.8189 255.3202 0006984  98.7711  14.5052 13.95898570691220
COSMOS 1375 DEB
1 17805U 82055AX  19103.73092802 +.00000360 +00000-0 +32130-3 0  9997
2 17805 065.8220 207.9927 0008232 179.9005 256.8974 13.96616793691950
COSMOS 1375 DEB
1 17806U 82055AY  19103.73151799 -.00000040 +00000-0 +39611-4 0  9997
2 17806 065.8324 133.2969 0054060 015.8543 099.1471 13.80468258684853
COSMOS 1375 DEB
1 17807U 82055AZ  19103.57360535  .00000153  00000-0  22778-3 0  9999
2 17807  65.8308 155.6869 0056427 192.8837 287.1005 13.78702371677762
ARIANE 1 DEB
1 17815U 86019ME  19103.89832492 +.00000138 +00000-0 +58967-4 0  9996
2 17815 098.3211 160.6253 0029753 107.7657 305.2847 14.38072071685337
COSMOS 839 DEB
1 17838U 76067BK  19098.26137770  .00000629  00000-0  23507-2 0  9999
2 17838  65.9887 191.5915 0641110 215.5836 174.2816 12.43979272168882
SL-8 DEB
1 17842U 86030C   19103.96024677 +.00000214 +00000-0 +71923-4 0  9997
2 17842 074.0240 076.5626 0015413 132.8432 287.6455 14.42815836687651
SL-8 DEB
1 17843U 86030D   19104.76201674  .00000229  00000-0  76074-4 0  9999
2 17843  74.0332  76.4756 0012903  94.6472 334.2390 14.43159838726966
SL-14 DEB
1 17844U 86101K   19103.63009715  .00000214  00000-0  12172-3 0  9998
2 17844  82.5032 304.7433 0015180 300.9082 125.3589 14.05795955649582
SL-12 R/B(2)
1 17872U 76092F   19103.85776422 -.00000304 +00000-0 +00000-0 0  9992
2 17872 009.8405 306.0020 0016041 108.0795 192.0637 01.00290889092631
